GLOBALSTAR M045 [-]     
1 25676U 99019A   24026.76979051 -.00000017  00000+0  68011-3 0  9999
2 25676  51.9993 311.4777 0000808 352.5313  23.9722 12.27028712131341
GLOBALSTAR M019 [-]     
1 25677U 99019B   24026.95135137  .00000067  00000+0  16417-2 0  9996
2 25677  51.9890  45.6397 0000837  28.7027  48.6453 12.13850790123731
GLOBALSTAR M044 [-]     
1 25678U 99019C   24027.04183196 -.00000036  00000+0  66648-3 0  9995
2 25678  51.9978 293.3069 0006518 136.0444 325.5571 11.90227763110911
GLOBALSTAR M042 [-]     
1 25679U 99019D   24027.47795762 -.00000069  00000+0  21613-3 0  9990
2 25679  52.0028  41.3713 0002892 337.6825 188.1098 12.22054930123371
GLOBALSTAR M025 [-]     
1 25770U 99031A   24026.84099024 -.00000037  00000+0  93836-3 0  9995
2 25770  51.9791 254.5704 0002070  43.7327  39.5982 11.22549086 82393
GLOBALSTAR M049 [-]     
1 25771U 99031B   24026.96392737 -.00000074  00000+0 -30080-3 0  9990
2 25771  51.9855 263.5589 0002191 239.6653 120.3927 11.12103114 60995
GLOBALSTAR M047 [-]     
1 25772U 99031C   24025.93688784 -.00000043  00000+0  74615-3 0  9994
2 25772  51.9860 311.4111 0016695 107.9402 252.3225 11.31918065413550
GLOBALSTAR M052 [-]     
1 25773U 99031D   24026.31165125 -.00000094  00000+0 -93412-3 0  9990
2 25773  51.9903  20.8480 0002566  51.8656  52.9120 11.15047761421857
